[{"OBJECT_NAME":"OBJECT A","OBJECT_ID":"2023-189A","EPOCH":"2026-03-09T22:59:06.381600","MEAN_MOTION":15.32403275,"ECCENTRICITY":0.00094831,"INCLINATION":97.4458,"RA_OF_ASC_NODE":86.5997,"ARG_OF_PERICENTER":249.5377,"MEAN_ANOMALY":110.4847,"EPHEMERIS_TYPE":0,"CLASSIFICATION_TYPE":"U","NORAD_CAT_ID":58502,"ELEMENT_SET_NO":999,"REV_AT_EPOCH":12601,"BSTAR":0.00019874471,"MEAN_MOTION_DOT":6.146e-5,"MEAN_MOTION_DDOT":0},{"OBJECT_NAME":"STARLINK-34906","OBJECT_ID":"2025-224Q","EPOCH":"2026-03-09T04:01:11.337312","MEAN_MOTION":15.30179574,"ECCENTRICITY":9.809e-5,"INCLINATION":53.1626,"RA_OF_ASC_NODE":13.8184,"ARG_OF_PERICENTER":109.5738,"MEAN_ANOMALY":250.5369,"EPHEMERIS_TYPE":0,"CLASSIFICATION_TYPE":"U","NORAD_CAT_ID":65896,"ELEMENT_SET_NO":999,"REV_AT_EPOCH":2479,"BSTAR":0.00078284323,"MEAN_MOTION_DOT":0.00022883,"MEAN_MOTION_DDOT":0}]
